[{"name":"TERRA","l1":"1 25994U 99068A   26183.71640850  .00000471  00000+0  10484-3 0  9993","l2":"2 25994  97.9448 232.6464 0002753 148.2704 359.4871 14.61115773411876","cat":"science"},{"name":"SCD 1","l1":"1 22490U 93009B   26183.13244091  .00000436  00000+0  68291-4 0  9994","l2":"2 22490  24.9688 115.2955 0041634 296.2972  85.9552 14.46124624763283","cat":"other"},{"name":"TECHSAT 1B (GO-32)","l1":"1 25397U 98043D   26183.72856333  .00000062  00000+0  46868-4 0  9990","l2":"2 25397  99.0074 176.8795 0001776 134.8948 225.2374 14.24431411453549","cat":"other"},{"name":"SCD 2","l1":"1 25504U 98060A   26183.78182816  .00000409  00000+0  63291-4 0  9997","l2":"2 25504  24.9965 335.9892 0016542 288.3013 203.0326 14.45531698462582","cat":"other"},{"name":"DLR-TUBSAT","l1":"1 25757U 99029B   26183.79371657  .00000114  00000+0  39777-4 0  9992","l2":"2 25757  98.6702 179.8116 0013220 305.7366  54.2598 14.52430873435519","cat":"other"},{"name":"MAROC-TUBSAT","l1":"1 27004U 01056D   26183.77530162 -.00000035  00000+0  12887-4 0  9994","l2":"2 27004  99.8090   0.9291 0020612 102.6599 326.8055 13.70263068228326","cat":"other"},{"name":"AQUA","l1":"1 27424U 02022A   26183.80339389  .00000916  00000+0  19180-3 0  9995","l2":"2 27424  98.4285 153.3989 0000691  82.0164  31.0933 14.62182300285553","cat":"science"},{"name":"SHIYAN-1 (SY-1)","l1":"1 28220U 04012A   26183.18725711  .00015404  00000+0  46818-3 0  9996","l2":"2 28220  97.8689 262.2336 0004345 335.4967  24.6068 15.34147176213393","cat":"other"},{"name":"AURA","l1":"1 28376U 04026A   26183.73440138  .00000886  00000+0  18895-3 0  9993","l2":"2 28376  98.3423 140.3171 0001182  86.4100 273.7236 14.61352876168485","cat":"other"},{"name":"IRS-P5 (CARTOSAT-1)","l1":"1 28649U 05017A   26183.51306473  .00001500  00000+0  15672-3 0  9990","l2":"2 28649  97.5305 205.8823 0002108  62.0385 298.1047 14.91090758146100","cat":"science"},{"name":"SINAH 1","l1":"1 28893U 05043D   26183.70380515  .00000421  00000+0  89410-4 0  9993","l2":"2 28893  98.2881 318.1186 0013547 223.8976 136.1151 14.64168598102792","cat":"other"},{"name":"RESURS-DK 1","l1":"1 29228U 06021A   26183.76762882  .00002578  00000+0  15058-3 0  9991","l2":"2 29228  69.9340 299.2211 0006700 284.6329  75.4094 15.13281648104934","cat":"other"},{"name":"ARIRANG-2 (KOMPSAT-2)","l1":"1 29268U 06031A   26183.80002525  .00000429  00000+0  88986-4 0  9996","l2":"2 29268  97.8303   7.4907 0015281  29.0190  29.0263 14.64669910 63764","cat":"science"},{"name":"LAPAN-TUBSAT","l1":"1 29709U 07001A   26183.74202993  .00000293  00000+0  40167-4 0  9996","l2":"2 29709  98.1340 183.3170 0013111 130.5898 229.6460 14.85963845 53468","cat":"other"},{"name":"HAIYANG-1B","l1":"1 31113U 07010A   26183.45731441  .00000106  00000+0  56083-4 0  9998","l2":"2 31113  98.3502 164.7107 0014021 151.3096 208.8862 14.31030796  2827","cat":"other"},{"name":"COSMO-SKYMED 1","l1":"1 31598U 07023A   26183.77450218  .00002090  00000+0  18604-3 0  9994","l2":"2 31598  97.8852  15.7619 0001335  82.8332 277.3041 14.97177651 32124","cat":"other"},{"name":"TERRASAR-X","l1":"1 31698U 07026A   26182.61687754  .00000688  00000+0  35949-4 0  9990","l2":"2 31698  97.4453 190.1187 0001948  88.1804 271.9654 15.19153219 55415","cat":"science"},{"name":"WORLDVIEW-1 (WV-1)","l1":"1 32060U 07041A   26183.65275916  .00006480  00000+0  26695-3 0  9992","l2":"2 32060  97.3897 303.1765 0000977 302.9852  57.1291 15.24437974 45238","cat":"science"},{"name":"YAOGAN-3","l1":"1 32289U 07055A   26183.76609185  .00002034  00000+0  21223-3 0  9994","l2":"2 32289  97.8141 213.4901 0001777  83.4245 276.7176 14.90839289  8191","cat":"classified"},{"name":"COSMO-SKYMED 2","l1":"1 32376U 07059A   26183.75597183  .00000496  00000+0  68836-4 0  9990","l2":"2 32376  97.8889   7.1282 0001319  90.5314 269.6050 14.82158542  4314","cat":"other"},{"name":"RADARSAT-2","l1":"1 32382U 07061A   26183.78125678  .00000049  00000+0  35966-4 0  9991","l2":"2 32382  98.5773 190.4907 0001316  84.9609 275.1724 14.29980812968180","cat":"science"},{"name":"CARTOSAT-2A","l1":"1 32783U 08021A   26183.87501733  .00000369  00000+0  56374-4 0  9994","l2":"2 32783  97.7624 232.0478 0013220  63.5410 296.7156 14.79260539981126","cat":"science"},{"name":"HUANJING 1A (HJ-1A)","l1":"1 33320U 08041A   26183.87676713  .00001223  00000+0  15245-3 0  9996","l2":"2 33320  97.6686 169.1088 0020710  86.7514 273.6069 14.84024072960739","cat":"other"},{"name":"HUANJING 1B (HJ-1B)","l1":"1 33321U 08041B   26183.85301640  .00000985  00000+0  12506-3 0  9990","l2":"2 33321  97.6520 172.2102 0037459 130.2533 230.1968 14.83343974960733","cat":"other"},{"name":"GEOEYE 1","l1":"1 33331U 08042A   26183.79596638  .00000569  00000+0  11602-3 0  9992","l2":"2 33331  98.1333 257.5367 0004873  25.4054 334.7387 14.64640940952435","cat":"other"},{"name":"THEOS","l1":"1 33396U 08049A   26183.89186215 -.00000200  00000+0 -73961-4 0  9998","l2":"2 33396  98.5564 240.6650 0001147  80.0096 280.1210 14.20134550920192","cat":"other"},{"name":"COSMO-SKYMED 3","l1":"1 33412U 08054A   26183.87965956  .00004758  00000+0  32095-3 0  9990","l2":"2 33412  97.8264  42.7095 0014802 209.0684 150.9720 15.07053522959302","cat":"other"},{"name":"YAOGAN-4","l1":"1 33446U 08061A   26183.75087277  .00001206  00000+0  15398-3 0  9995","l2":"2 33446  97.9306 117.1464 0014910  25.5664 334.6284 14.83231728947978","cat":"classified"},{"name":"GOSAT (IBUKI)","l1":"1 33492U 09002A   26183.82025478  .00000206  00000+0  44788-4 0  9990","l2":"2 33492  98.0906 294.7066 0001255  80.4689 279.6658 14.67538859933753","cat":"other"},{"name":"DEIMOS-1","l1":"1 35681U 09041A   26183.71867801  .00000313  00000+0  53319-4 0  9996","l2":"2 35681  97.7418 340.2736 0002419 109.5257 250.6214 14.75252250909170","cat":"other"},{"name":"DUBAISAT-1","l1":"1 35682U 09041B   26183.35112951  .00001027  00000+0  15962-3 0  9990","l2":"2 35682  98.0071 316.4441 0010902  29.3148 330.8670 14.75149388907332","cat":"other"}]